NORAD_CAT_ID,OBJECT_NAME,OBJECT_TYPE,EPOCH,MEAN_MOTION,ECCENTRICITY,INCLINATION,RA_OF_ASC_NODE,ARG_OF_PERICENTER,MEAN_ANOMALY,BSTAR,MEAN_MOTION_DOT,MEAN_MOTION_DDOT,TLE_LINE0,TLE_LINE1,TLE_LINE2,SEMIMAJOR_AXIS,PERIOD,APOGEE,PERIGEE,DECAYED
53427.0,STARLINK-4541,PAYLOAD,2022-12-31 02:16:54,15.08833738,0.0002589,53.2201,302.1958,16.0204,344.087,0.00013272,1.824e-05,0.0,0 STARLINK-4541,1 53427U 22097AR  22365.09506984  .00001824  00000-0  13272-3 0  9993,2 53427  53.2201 302.1958 0002589  16.0204 344.0870 15.08833738 22838,6917.9,95.438,541.556,537.9730000000002,0.0
53427.0,STARLINK-4541,PAYLOAD,2022-12-31 13:24:35,15.08839257,0.000276,53.2183,300.1138,24.2975,335.8146,0.00015415,2.166e-05,0.0,0 STARLINK-4541,1 53427U 22097AR  22365.55874801  .00002166  00000-0  15415-3 0  9991,2 53427  53.2183 300.1138 0002760  24.2975 335.8146 15.08839257 22906,6917.8830000000025,95.438,541.6569999999998,537.8380000000002,0.0
53427.0,STARLINK-4541,PAYLOAD,2023-01-01 05:18:27,15.08839292,0.0002887999999999,53.2187,297.1419,20.1878,339.9228,6.1048e-06,-1.91e-06,0.0,0 STARLINK-4541,1 53427U 22097AR  23001.22115339 -.00000191  00000-0  61048-5 0  9999,2 53427  53.2187 297.1419 0002888  20.1878 339.9228 15.08839292 22528,6917.8830000000025,95.438,541.745,537.75,0.0
53427.0,STARLINK-4541,PAYLOAD,2023-01-01 19:36:56,15.08823921,0.0002926,53.2183,294.4645,22.3036,337.8083,-8.6601e-05,-1.666e-05,0.0,0 STARLINK-4541,1 53427U 22097AR  23001.81732615 -.00001666  00000-0 -86601-4 0  9996,2 53427  53.2183 294.4645 0002926  22.3036 337.8083 15.08823921 23099,6917.93,95.439,541.819,537.77,0.0
53427.0,STARLINK-4541,PAYLOAD,2023-01-02 01:58:29,15.08825742,0.0002816,53.2179,293.2754,21.9442,338.167,-6.710100000000001e-05,-1.356e-05,0.0,0 STARLINK-4541,1 53427U 22097AR  23002.08228663 -.00001356  00000-0 -67101-4 0  9999,2 53427  53.2179 293.2754 0002816  21.9442 338.1670 15.08825742 22656,6917.924,95.438,541.737,537.841,0.0
53427.0,STARLINK-4541,PAYLOAD,2023-01-02 05:09:15,15.08828865,0.0002839,53.2184,292.6809,22.8277,337.2841,1.2206e-06,-2.69e-06,0.0,0 STARLINK-4541,1 53427U 22097AR  23002.21476414 -.00000269  00000-0  12206-5 0  9991,2 53427  53.2184 292.6809 0002839  22.8277 337.2841 15.08828865 23152,6917.9140000000025,95.438,541.743,537.815,0.0
53427.0,STARLINK-4541,PAYLOAD,2023-01-02 19:27:43,15.08834281,0.0002903,53.2183,290.0051,19.3458,340.7644,9.8925e-05,1.286e-05,0.0,0 STARLINK-4541,1 53427U 22097AR  23002.81092011  .00001286  00000-0  98925-4 0  9994,2 53427  53.2183 290.0051 0002903  19.3458 340.7644 15.08834281 22761,6917.898,95.438,541.771,537.755,0.0
53427.0,STARLINK-4541,PAYLOAD,2023-01-03 11:21:34,15.08841919,0.0002945,53.2182,287.0314,22.1126,337.9993,0.00017094,2.433e-05,0.0,0 STARLINK-4541,1 53427U 22097AR  23003.47331839  .00002433  00000-0  17094-3 0  9993,2 53427  53.2182 287.0314 0002945  22.1126 337.9993 15.08841919 23344,6917.875,95.437,541.7769999999998,537.702,0.0
53427.0,STARLINK-4541,PAYLOAD,2023-01-04 03:15:25,15.08843235,0.0002926,53.2182,284.0573,22.2416,337.8703,0.00024367,3.592e-05,0.0,0 STARLINK-4541,1 53427U 22097AR  23004.13571705  .00003592  00000-0  24367-3 0  9993,2 53427  53.2182 284.0573 0002926  22.2416 337.8703 15.08843235 22968,6917.871,95.437,541.76,537.711,0.0
53427.0,STARLINK-4541,PAYLOAD,2023-01-04 11:12:21,15.08841321,0.0003177,53.2182,282.5688,22.111,338.0019,0.00017163,2.444e-05,0.0,0 STARLINK-4541,1 53427U 22097AR  23004.46692081  .00002444  00000-0  17163-3 0  9991,2 53427  53.2182 282.5688 0003177  22.1110 338.0019 15.08841321 23493,6917.876,95.437,541.939,537.544,0.0
53427.0,STARLINK-4541,PAYLOAD,2023-01-05 03:06:11,15.08870381,0.0003096,53.2174,279.5972,23.1555,336.9576,0.00041648,6.352e-05,0.0,0 STARLINK-4541,1 53427U 22097AR  23005.12929923  .00006352  00000-0  41648-3 0  9990,2 53427  53.2174 279.5972 0003096  23.1555 336.9576 15.08870381 23112,6917.788000000001,95.436,541.794,537.511,0.0
53427.0,STARLINK-4541,PAYLOAD,2023-01-05 11:03:08,15.08841156,0.0002928999999999,53.2174,278.1103,26.7878,333.3265,-0.0001091,-2.025e-05,0.0,0 STARLINK-4541,1 53427U 22097AR  23005.46051145 -.00002025  00000-0 -10910-3 0  9992,2 53427  53.2174 278.1103 0002929  26.7878 333.3265 15.08841156 23163,6917.877,95.437,541.768,537.716,0.0
53427.0,STARLINK-4541,PAYLOAD,2023-01-06 10:53:56,15.088224599999998,0.0002733,53.2178,273.6533,36.4117,323.7061,-0.00026056,-4.431e-05,0.0,0 STARLINK-4541,1 53427U 22097AR  23006.45412634 -.00004431  00000-0 -26056-3 0  9997,2 53427  53.2178 273.6533 0002733  36.4117 323.7061 15.08822460 23312,6917.934,95.439,541.69,537.908,0.0
53427.0,STARLINK-4541,PAYLOAD,2023-01-06 17:15:29,15.08825497,0.0002954,53.2182,272.4627,36.2809,323.8383,-0.00024043,-4.112e-05,0.0,0 STARLINK-4541,1 53427U 22097AR  23006.71908853 -.00004112  00000-0 -24043-3 0  9999,2 53427  53.2182 272.4627 0002954  36.2809 323.8383 15.08825497 23837,6917.925,95.438,541.8330000000002,537.746,0.0
53427.0,STARLINK-4541,PAYLOAD,2023-01-07 02:47:48,15.08817752,0.0002888,53.2166,270.6786,39.1033,321.0167,0.00021224,3.089e-05,0.0,0 STARLINK-4541,1 53427U 22097AR  23007.11653647  .00003089  00000-0  21224-3 0  9990,2 53427  53.2166 270.6786 0002888  39.1033 321.0167 15.08817752 23893,6917.948,95.439,541.811,537.815,0.0
53427.0,STARLINK-4541,PAYLOAD,2023-01-07 20:17:03,15.08832043,0.000274,53.2148,267.4072,40.3047,319.8148,0.00043104,6.577e-05,0.0,0 STARLINK-4541,1 53427U 22097AR  23007.84518030  .00006577  00000-0  43104-3 0  9992,2 53427  53.2148 267.4072 0002740  40.3047 319.8148 15.08832043 23525,6917.905,95.438,541.665,537.874,0.0
53427.0,STARLINK-4541,PAYLOAD,2023-01-08 12:10:54,15.0884263,0.0002396,53.2149,264.4325,44.6183,315.5002,0.00044954,6.874e-05,0.0,0 STARLINK-4541,1 53427U 22097AR  23008.50757927  .00006874  00000-0  44954-3 0  9990,2 53427  53.2149 264.4325 0002396  44.6183 315.5002 15.08842630 24109,6917.871999999999,95.437,541.395,538.08,0.0
53427.0,STARLINK-4541,PAYLOAD,2023-01-08 18:32:27,15.08838131,0.0002343,53.2151,263.2429,45.6933,314.4251,0.0002441,3.599e-05,0.0,0 STARLINK-4541,1 53427U 22097AR  23008.77254101  .00003599  00000-0  24410-3 0  9991,2 53427  53.2151 263.2429 0002343  45.6933 314.4251 15.08838131 24149,6917.886,95.438,541.372,538.13,0.0
53427.0,STARLINK-4541,PAYLOAD,2023-01-08 23:18:36,15.08840855,0.0002373,53.2149,262.3505,45.2672,314.8513,0.00029692,4.441e-05,0.0,0 STARLINK-4541,1 53427U 22097AR  23008.97126060  .00004441  00000-0  29692-3 0  9999,2 53427  53.2149 262.3505 0002373  45.2672 314.8513 15.08840855 23690,6917.8780000000015,95.438,541.384,538.101,0.0
53427.0,STARLINK-4541,PAYLOAD,2023-01-09 12:01:41,15.08843814,0.000233,53.215,259.9725,46.7457,313.373,0.00022262,3.257e-05,0.0,0 STARLINK-4541,1 53427U 22097AR  23009.50117910  .00003257  00000-0  22262-3 0  9993,2 53427  53.2150 259.9725 0002330  46.7457 313.3730 15.08843814 24254,6917.8690000000015,95.437,541.346,538.122,0.0
53427.0,STARLINK-4541,PAYLOAD,2023-01-09 23:09:24,15.08839334,0.000239,53.2149,257.891,47.0698,313.0494,8.6654e-05,1.091e-05,0.0,0 STARLINK-4541,1 53427U 22097AR  23009.96486129  .00001091  00000-0  86654-4 0  9994,2 53427  53.2149 257.8910 0002390  47.0698 313.0494 15.08839334 23842,6917.882,95.438,541.401,538.094,0.0
53427.0,STARLINK-4541,PAYLOAD,2023-01-10 11:52:29,15.08840296,0.0002391,53.2147,255.512,48.6011,311.5186,0.00011382,1.524e-05,0.0,0 STARLINK-4541,1 53427U 22097AR  23010.49478117  .00001524  00000-0  11382-3 0  9998,2 53427  53.2147 255.5120 0002391  48.6011 311.5186 15.08840296 24408,6917.879,95.438,541.399,538.09,0.0
53427.0,STARLINK-4541,PAYLOAD,2023-01-10 18:14:01,15.08850089,0.0002528,53.2147,254.3228,50.1739,309.9475,-9.4889e-05,-1.799e-05,0.0,0 STARLINK-4541,1 53427U 22097AR  23010.75973555 -.00001799  00000-0 -94889-4 0  9993,2 53427  53.2147 254.3228 0002528  50.1739 309.9475 15.08850089 23964,6917.85,95.437,541.4630000000002,537.966,0.0
53427.0,STARLINK-4541,PAYLOAD,2023-01-11 11:43:16,15.08841894,0.0002833999999999,53.2125,251.0513,63.371,296.7572,0.00014699,2.052e-05,0.0,0 STARLINK-4541,1 53427U 22097AR  23011.48838069  .00002052  00000-0  14699-3 0  9995,2 53427  53.2125 251.0513 0002834  63.3710 296.7572 15.08841894 24074,6917.875,95.437,541.7,537.779,0.0
53427.0,STARLINK-4541,PAYLOAD,2023-01-12 16:20:12,15.08835635,0.0002205,53.2148,245.6996,64.6358,295.4862,-3.7353e-05,-8.83e-06,0.0,0 STARLINK-4541,1 53427U 22097AR  23012.68070356 -.00000883  00000-0 -37353-4 0  9990,2 53427  53.2148 245.6996 0002205  64.6358 295.4862 15.08835635 24251,6917.894,95.438,541.284,538.2330000000002,0.0
53427.0,STARLINK-4541,PAYLOAD,2023-01-13 08:14:04,15.08835856,0.0002005,53.2157,242.7261,70.5426,289.5783,0.00015708,2.212e-05,0.0,0 STARLINK-4541,1 53427U 22097AR  23013.34310457  .00002212  00000-0  15708-3 0  9998,2 53427  53.2157 242.7261 0002005  70.5426 289.5783 15.08835856 24839,6917.893,95.438,541.145,538.371,0.0
53427.0,STARLINK-4541,PAYLOAD,2023-01-13 17:46:23,15.08836003,0.0002123,53.2146,240.9404,69.105,291.0169,0.00013659,1.886e-05,0.0,0 STARLINK-4541,1 53427U 22097AR  23013.74054623  .00001886  00000-0  13659-3 0  9991,2 53427  53.2146 240.9404 0002123  69.1050 291.0169 15.08836003 24419,6917.893,95.438,541.226,538.289,0.0
53427.0,STARLINK-4541,PAYLOAD,2023-01-14 20:47:56,15.08839095,0.0002065,53.2141,235.8848,75.5527,284.5694,0.00010628,1.404e-05,0.0,0 STARLINK-4541,1 53427U 22097AR  23014.86662604  .00001404  00000-0  10628-3 0  9998,2 53427  53.2141 235.8848 0002065  75.5527 284.5694 15.08839095 24586,6917.883000000001,95.438,541.177,538.32,0.0
53427.0,STARLINK-4541,PAYLOAD,2023-01-15 12:41:48,15.08837866,0.0002149,53.2146,232.9113,76.3203,283.8028,5.773399999999999e-05,6.31e-06,0.0,0 STARLINK-4541,1 53427U 22097AR  23015.52902886  .00000631  00000-0  57734-4 0  9992,2 53427  53.2146 232.9113 0002149  76.3203 283.8028 15.08837866 25169,6917.887,95.438,541.239,538.265,0.0
